{
  "type": "FeatureCollection",
  "features": [
    {
      "type": "Feature",
      "properties": {
        "norad_id": 38832,
        "name": "FENGYUN 1C DEB",
        "group": "fengyun-1c-debris",
        "lat": 58.43128650289314,
        "lon": 8.974119349016712,
        "alt_km": 811.3142167870865,
        "timestamp": "2025-12-06T03:35:02.161821+00:00",
        "meta_object_name": "FENGYUN 1C DEB",
        "meta_object_id": "1999-025EVY",
        "meta_epoch": "2025-12-02T22:21:52.125984",
        "meta_mean_motion": 14.04442466,
        "meta_eccentricity": 0.00846241,
        "meta_inclination": 99.2674,
        "meta_ra_of_asc_node": 21.1018,
        "meta_arg_of_pericenter": 70.1542,
        "meta_mean_anomaly": 290.8721,
        "meta_ephemeris_type": 0,
        "meta_classification_type": "U",
        "meta_norad_cat_id": 38832,
        "meta_element_set_no": 999,
        "meta_rev_at_epoch": 63620,
        "meta_bstar": 0.0013226445,
        "meta_mean_motion_dot": 2.131e-05,
        "meta_mean_motion_ddot": 0,
        "tle_line1": "1 38832U 99025EVY 25336.93185331  .00002131  00000+0  13226-2 0  9993",
        "tle_line2": "2 38832  99.2674  21.1018 0084624  70.1542 290.8721 14.04442466636200"
      },
      "geometry": {
        "type": "Point",
        "coordinates": [
          8.974119349016712,
          58.43128650289314
        ]
      }
    },
    {
      "type": "Feature",
      "properties": {
        "norad_id": 39536,
        "name": "FENGYUN 1C DEB",
        "group": "fengyun-1c-debris",
        "lat": -50.16973159643083,
        "lon": -171.95943700146685,
        "alt_km": 875.271425868671,
        "timestamp": "2025-12-06T03:35:02.161832+00:00",
        "meta_object_name": "FENGYUN 1C DEB",
        "meta_object_id": "1999-025EWD",
        "meta_epoch": "2025-11-07T21:44:34.572480",
        "meta_mean_motion": 13.69653557,
        "meta_eccentricity": 0.02407275,
        "meta_inclination": 99.7905,
        "meta_ra_of_asc_node": 351.2614,
        "meta_arg_of_pericenter": 346.3194,
        "meta_mean_anomaly": 13.1503,
        "meta_ephemeris_type": 0,
        "meta_classification_type": "U",
        "meta_norad_cat_id": 39536,
        "meta_element_set_no": 999,
        "meta_rev_at_epoch": 61287,
        "meta_bstar": 0.0015441724,
        "meta_mean_motion_dot": 1.606e-05,
        "meta_mean_motion_ddot": 0,
        "tle_line1": "1 39536U 99025EWD 25311.90595570  .00001606  00000+0  15442-2 0  9993",
        "tle_line2": "2 39536  99.7905 351.2614 0240727 346.3194  13.1503 13.69653557612878"
      },
      "geometry": {
        "type": "Point",
        "coordinates": [
          -171.95943700146685,
          -50.16973159643083
        ]
      }
    },
    {
      "type": "Feature",
      "properties": {
        "norad_id": 39537,
        "name": "FENGYUN 1C DEB",
        "group": "fengyun-1c-debris",
        "lat": 27.149338659660277,
        "lon": 121.31687722312907,
        "alt_km": 833.2545782348016,
        "timestamp": "2025-12-06T03:35:02.161843+00:00",
        "meta_object_name": "FENGYUN 1C DEB",
        "meta_object_id": "1999-025EWE",
        "meta_epoch": "2025-11-24T15:36:49.218624",
        "meta_mean_motion": 13.84100529,
        "meta_eccentricity": 0.01777289,
        "meta_inclination": 99.1539,
        "meta_ra_of_asc_node": 114.8537,
        "meta_arg_of_pericenter": 29.7742,
        "meta_mean_anomaly": 331.3386,
        "meta_ephemeris_type": 0,
        "meta_classification_type": "U",
        "meta_norad_cat_id": 39537,
        "meta_element_set_no": 999,
        "meta_rev_at_epoch": 59006,
        "meta_bstar": 0.0012783634,
        "meta_mean_motion_dot": 1.566e-05,
        "meta_mean_motion_ddot": 0,
        "tle_line1": "1 39537U 99025EWE 25328.65056966  .00001566  00000+0  12784-2 0  9996",
        "tle_line2": "2 39537  99.1539 114.8537 0177728  29.7742 331.3386 13.84100529590067"
      },
      "geometry": {
        "type": "Point",
        "coordinates": [
          121.31687722312907,
          27.149338659660277
        ]
      }
    },
    {
      "type": "Feature",
      "properties": {
        "norad_id": 39541,
        "name": "FENGYUN 1C DEB",
        "group": "fengyun-1c-debris",
        "lat": -29.80547789068344,
        "lon": 27.401544960877985,
        "alt_km": 857.0626314062329,
        "timestamp": "2025-12-06T03:35:02.161853+00:00",
        "meta_object_name": "FENGYUN 1C DEB",
        "meta_object_id": "1999-025EWJ",
        "meta_epoch": "2025-11-26T08:43:14.269440",
        "meta_mean_motion": 14.20329557,
        "meta_eccentricity": 0.00721468,
        "meta_inclination": 98.6819,
        "meta_ra_of_asc_node": 12.7746,
        "meta_arg_of_pericenter": 119.8468,
        "meta_mean_anomaly": 240.9905,
        "meta_ephemeris_type": 0,
        "meta_classification_type": "U",
        "meta_norad_cat_id": 39541,
        "meta_element_set_no": 999,
        "meta_rev_at_epoch": 58770,
        "meta_bstar": 0.00069059031,
        "meta_mean_motion_dot": 1.475e-05,
        "meta_mean_motion_ddot": 0,
        "tle_line1": "1 39541U 99025EWJ 25330.36335960  .00001475  00000+0  69059-3 0  9993",
        "tle_line2": "2 39541  98.6819  12.7746 0072146 119.8468 240.9905 14.20329557587703"
      },
      "geometry": {
        "type": "Point",
        "coordinates": [
          27.401544960877985,
          -29.80547789068344
        ]
      }
    },
    {
      "type": "Feature",
      "properties": {
        "norad_id": 39543,
        "name": "FENGYUN 1C DEB",
        "group": "fengyun-1c-debris",
        "lat": -72.99563655606768,
        "lon": 158.9980884812146,
        "alt_km": 1024.2668442857166,
        "timestamp": "2025-12-06T03:35:02.161866+00:00",
        "meta_object_name": "FENGYUN 1C DEB",
        "meta_object_id": "1999-025EWL",
        "meta_epoch": "2025-12-02T19:29:54.358944",
        "meta_mean_motion": 13.70153649,
        "meta_eccentricity": 0.03392643,
        "meta_inclination": 99.0434,
        "meta_ra_of_asc_node": 7.2386,
        "meta_arg_of_pericenter": 168.2172,
        "meta_mean_anomaly": 192.7172,
        "meta_ephemeris_type": 0,
        "meta_classification_type": "U",
        "meta_norad_cat_id": 39543,
        "meta_element_set_no": 999,
        "meta_rev_at_epoch": 49049,
        "meta_bstar": 0.0011250727,
        "meta_mean_motion_dot": 1.448e-05,
        "meta_mean_motion_ddot": 0,
        "tle_line1": "1 39543U 99025EWL 25336.81243471  .00001448  00000+0  11251-2 0  9996",
        "tle_line2": "2 39543  99.0434   7.2386 0339264 168.2172 192.7172 13.70153649490499"
      },
      "geometry": {
        "type": "Point",
        "coordinates": [
          158.9980884812146,
          -72.99563655606768
        ]
      }
    },
    {
      "type": "Feature",
      "properties": {
        "norad_id": 39544,
        "name": "FENGYUN 1C DEB",
        "group": "fengyun-1c-debris",
        "lat": -6.308029393229475,
        "lon": 38.54384338859926,
        "alt_km": 915.7744395362943,
        "timestamp": "2025-12-06T03:35:02.161877+00:00",
        "meta_object_name": "FENGYUN 1C DEB",
        "meta_object_id": "1999-025EWM",
        "meta_epoch": "2025-11-19T09:11:56.449536",
        "meta_mean_motion": 14.05475202,
        "meta_eccentricity": 0.00550402,
        "meta_inclination": 98.7431,
        "meta_ra_of_asc_node": 203.3482,
        "meta_arg_of_pericenter": 73.9921,
        "meta_mean_anomaly": 286.7301,
        "meta_ephemeris_type": 0,
        "meta_classification_type": "U",
        "meta_norad_cat_id": 39544,
        "meta_element_set_no": 999,
        "meta_rev_at_epoch": 56527,
        "meta_bstar": 0.00067356683,
        "meta_mean_motion_dot": 1.067e-05,
        "meta_mean_motion_ddot": 0,
        "tle_line1": "1 39544U 99025EWM 25323.38329224  .00001067  00000+0  67357-3 0  9992",
        "tle_line2": "2 39544  98.7431 203.3482 0055040  73.9921 286.7301 14.05475202565278"
      },
      "geometry": {
        "type": "Point",
        "coordinates": [
          38.54384338859926,
          -6.308029393229475
        ]
      }
    },
    {
      "type": "Feature",
      "properties": {
        "norad_id": 40688,
        "name": "FENGYUN 1C DEB",
        "group": "fengyun-1c-debris",
        "lat": -65.25356588241661,
        "lon": 150.03207488224854,
        "alt_km": 1002.2562999106694,
        "timestamp": "2025-12-06T03:35:02.161887+00:00",
        "meta_object_name": "FENGYUN 1C DEB",
        "meta_object_id": "1999-025EWU",
        "meta_epoch": "2025-11-28T15:26:17.467872",
        "meta_mean_motion": 13.83811366,
        "meta_eccentricity": 0.01426841,
        "meta_inclination": 98.9673,
        "meta_ra_of_asc_node": 122.8373,
        "meta_arg_of_pericenter": 69.4473,
        "meta_mean_anomaly": 292.1926,
        "meta_ephemeris_type": 0,
        "meta_classification_type": "U",
        "meta_norad_cat_id": 40688,
        "meta_element_set_no": 999,
        "meta_rev_at_epoch": 29722,
        "meta_bstar": 0.00038169517,
        "meta_mean_motion_dot": 4.17e-06,
        "meta_mean_motion_ddot": 0,
        "tle_line1": "1 40688U 99025EWU 25332.64325773  .00000417  00000+0  38170-3 0  9996",
        "tle_line2": "2 40688  98.9673 122.8373 0142684  69.4473 292.1926 13.83811366297227"
      },
      "geometry": {
        "type": "Point",
        "coordinates": [
          150.03207488224854,
          -65.25356588241661
        ]
      }
    }
  ]
}